{"fetched_at":"2026-04-03T13:02:10Z","count":7912,"tles":[{"name":"FENGYUN 1C DEB","line1":"1 29789U 99025CF  26092.78528282  .00001220  00000+0  13950-2 0  9995","line2":"2 29789  99.4590 275.9385 0296461 358.4856  16.1014 13.54582067944910","category":"Weather"},{"name":"ONEWEB-0095","line1":"1 45436U 20020N   26092.89448695  .00000362  00000+0  98657-3 0  9996","line2":"2 45436  87.8914  36.0294 0001462  55.8585 304.2681 13.11417638292804","category":"Other"},{"name":"STARLINK-5851","line1":"1 55947U 23037AK  26092.91668981  .00789450  00000+0  51105-2 0  9998","line2":"2 55947  70.0016 213.9831 0004353 279.6404  57.4242 15.73650157  5874","category":"Starlink"},{"name":"FENGYUN 1C DEB","line1":"1 31210U 99025BKQ 26092.96750309  .00000717  00000+0  41344-3 0  9993","line2":"2 31210  98.7231  95.9596 0016369 197.9079 191.6815 14.12160489975377","category":"Weather"},{"name":"STARLINK-1981","line1":"1 47579U 21009AH  23362.03593163  .00004304  00000+0  30767-3 0  9996","line2":"2 47579  53.0538  14.8704 0001378 108.2736 251.8403 15.06396343160558","category":"Starlink"},{"name":"STARLINK-6349","line1":"1 57241U 23094Z   26092.76057738  .00001702  00000+0  73121-4 0  9996","line2":"2 57241  42.9995 243.7519 0001440 268.8388  91.2298 15.26747173150923","category":"Starlink"},{"name":"RESURS-P 1","line1":"1 39186U 13030A   24178.61580920  .00071793  00000+0  57317-3 0  9999","line2":"2 39186  97.0081 228.7319 0009224 149.9433 210.2362 15.70860139616937","category":"Other"},{"name":"STARLINK-4423","line1":"1 53209U 22084W   26092.88801831  .00001300  00000+0  94299-4 0  9991","line2":"2 53209  97.6038 154.0289 0001471  88.4331 271.7064 15.05652285202957","category":"Starlink"},{"name":"STARLINK-11172 [DTC]","line1":"1 60193U 24124L   26092.57053455  .00001825  00000+0  19917-4 0  9991","line2":"2 60193  53.1606  43.6148 0001296  76.6659 283.4503 15.69717286100283","category":"Starlink"},{"name":"FENGYUN 1C DEB","line1":"1 32339U 99025CYG 23177.02559299  .00004453  00000+0  16754-2 0  9996","line2":"2 32339  98.6176 243.3623 0045366 212.9880 146.8471 14.31416380818937","category":"Weather"},{"name":"STARLINK-2496","line1":"1 48486U 21040BL  23361.80098953  .00003968  00000+0  28523-3 0  9992","line2":"2 48486  53.0542 206.2737 0001424 119.9484 240.1647 15.06382943145325","category":"Starlink"},{"name":"STARLINK-30548","line1":"1 58046U 23156U   26092.60152249  .00001136  00000+0  50487-4 0  9996","line2":"2 58046  53.1615  57.1309 0001335  96.6231 263.4922 15.30198514138647","category":"Starlink"},{"name":"RADUGA 21","line1":"1 18631U 87100A   26092.64020693 -.00000085  00000+0  00000+0 0  9996","line2":"2 18631  11.4147 325.7996 0001372 316.0056  26.8555  1.00361326140327","category":"Other"},{"name":"LEMUR-2-ANDIS","line1":"1 42838U 17042P   26092.93605986  .00041973  00000+0  13629-2 0  9990","line2":"2 42838  97.3668 274.0076 0008350 271.6823  88.3462 15.31782759476924","category":"Other"},{"name":"STARLINK-5185","line1":"1 54100U 22136BB  26092.63881242  .00000733  00000+0  64124-4 0  9990","line2":"2 54100  53.2135 226.3177 0001380  92.6291 267.4859 15.08842838190604","category":"Starlink"},{"name":"COSMOS 2251 DEB","line1":"1 35759U 93036ARD 26092.47006659  .00002349  00000+0  42321-3 0  9998","line2":"2 35759  74.0397   3.0225 0074978  94.2489 266.7252 14.65322540677578","category":"Other"},{"name":"STARLINK-3624","line1":"1 51773U 22017F   26092.65222495 -.00002221  00000+0 -12147-3 0  9995","line2":"2 51773  53.2153 231.5195 0001010  77.7916 282.3190 15.08851109226226","category":"Starlink"},{"name":"FENGYUN 1C DEB","line1":"1 29872U 99025FS  26092.00665396  .00002911  00000+0  68866-3 0  9996","line2":"2 29872  98.3388 110.1260 0233820 342.1205  17.1856 14.39537264  1772","category":"Weather"},{"name":"STARLINK-1366","line1":"1 45569U 20025AQ  26092.91668981  .00262468  00000+0  12353-2 0  9998","line2":"2 45569  53.0385 277.1494 0003782 152.0891 323.4139 15.81858322  5985","category":"Starlink"},{"name":"STARLINK-5771","line1":"1 56023U 23042AP  26092.91668981  .00091450  00000+0  33821-2 0  9991","line2":"2 56023  43.0007 268.6411 0001774 268.7957 244.6905 15.26688571  5771","category":"Starlink"},{"name":"FENGYUN 1C DEB","line1":"1 31291U 99025BNZ 23178.49339233  .00017356  00000+0  36199-2 0  9999","line2":"2 31291  98.6394 172.7958 0061679 112.5949  39.2499 14.58782910852271","category":"Weather"},{"name":"STARLINK-2037","line1":"1 47653U 21012AK  23362.14650966  .00005202  00000+0  36787-3 0  9996","line2":"2 47653  53.0550  54.3777 0001380  84.1550 275.9596 15.06398820158787","category":"Starlink"},{"name":"STARLINK-31241","line1":"1 59045U 24038Y   26092.73944980  .00000930  00000+0  43310-4 0  9999","line2":"2 59045  43.0025 247.9738 0001396 264.2300  95.8393 15.27580882118536","category":"Starlink"},{"name":"ONEWEB-0081","line1":"1 45429U 20020F   26092.53999777  .00000054  00000+0  11645-3 0  9991","line2":"2 45429  87.8902  36.1035 0001805  86.5855 273.5479 13.11413071292821","category":"Other"},{"name":"STARLINK-5864","line1":"1 55940U 23037AC  26092.61182208  .00000973  00000+0  89308-4 0  9995","line2":"2 55940  69.9999 224.1318 0003124 269.7852  90.2949 14.98334401167561","category":"Starlink"},{"name":"FENGYUN 1C DEB","line1":"1 30906U 99025AYU 23178.09476310  .00001700  00000+0  92922-3 0  9998","line2":"2 30906  99.0708 132.9958 0082899 270.0691  89.0980 14.11683034838263","category":"Weather"},{"name":"EUTELSAT 7B","line1":"1 39163U 13022A   26092.89413423  .00000044  00000+0  00000+0 0  9999","line2":"2 39163   0.0715  15.6202 0006294 352.8345 151.6440  1.00273015 47195","category":"Other"},{"name":"STARLINK-4411","line1":"1 53202U 22084P   26092.90597987  .00001076  00000+0  78771-4 0  9998","line2":"2 53202  97.6036 155.1067 0000974 103.0582 257.0754 15.05650655203024","category":"Starlink"},{"name":"STARLINK-11197 [DTC]","line1":"1 60186U 24124D   26092.15909550  .00000681  00000+0  10479-4 0  9996","line2":"2 60186  53.1588  45.3097 0001228  93.5051 266.6107 15.69706084100226","category":"Starlink"},{"name":"STARLINK-1971","line1":"1 47572U 21009AA  26092.15890508  .11789308  12521-4  56255-3 0  9990","line2":"2 47572  53.0232 200.4664 0006922 316.1431  43.9066 16.42690585285393","category":"Starlink"},{"name":"STARLINK-6368","line1":"1 57234U 23094S   26092.77758141  .00001934  00000+0  81751-4 0  9990","line2":"2 57234  43.0016 254.3125 0001416 249.3840 110.6860 15.26747526150802","category":"Starlink"},{"name":"SBS 2","line1":"1 12855U 81096A   26092.55828192 -.00000368  00000+0  00000+0 0  9990","line2":"2 12855  10.3825 321.9406 0004286 262.7752 278.7838  1.00127218117855","category":"Other"},{"name":"FENGYUN 1C DEB","line1":"1 32330U 99025CXX 23174.30722976  .00002923  00000+0  17403-2 0  9991","line2":"2 32330  98.0338 197.3624 0181680 161.5861 199.1998 14.00101396825600","category":"Weather"},{"name":"STARLINK-2755","line1":"1 48479U 21040BD  26092.69627973  .00021959  00000+0  77062-3 0  9997","line2":"2 48479  53.1569  79.3647 0001563  90.9064 269.2116 15.29374136270177","category":"Starlink"},{"name":"STARLINK-30559","line1":"1 58039U 23156M   26077.96298965  .16016502  12119-4  38215-2 0  9998","line2":"2 58039  53.1239 110.9764 0004299  10.5615 349.5517 16.28805304136641","category":"Starlink"},{"name":"STARLINK-5213","line1":"1 54093U 22136AU  26092.77496732 -.00000042  00000+0  15425-4 0  9996","line2":"2 54093  53.2163 225.7477 0000871  87.6445 272.4647 15.08839276190626","category":"Starlink"},{"name":"COSMOS 2412 (797)","line1":"1 28510U 04053C   08025.08344957 -.00000048  00000-0  10000-3 0  8809","line2":"2 28510  64.1988 299.5806 0002182 193.5458 326.4732  2.13102996 23961","category":"Other"},{"name":"IRIDIUM 33 DEB","line1":"1 35742U 97051RV  23179.13402023  .00044293  00000+0  27349-2 0  9998","line2":"2 35742  86.3941  66.8723 0036286 174.4165 185.7485 15.09145241746927","category":"Other"},{"name":"STARLINK-3458","line1":"1 51758U 22016AW  26092.56570118  .00000049  00000+0  21174-4 0  9990","line2":"2 51758  53.2157 201.8903 0001542  87.2211 272.8957 15.08836496228458","category":"Starlink"},{"name":"2024-043R","line1":"1 59113U 24043R   24094.59211533  .00011192  00000+0  57032-3 0  9993","line2":"2 59113  97.4642 219.4079 0015345 194.3689 165.7109 15.16839108  4491","category":"Other"},{"name":"STARLINK-1354","line1":"1 45562U 20025AH  23362.46211005  .00006203  00000+0  43497-3 0  9996","line2":"2 45562  53.0541  87.9586 0001344 106.1076 254.0061 15.06397712203855","category":"Starlink"},{"name":"STARLINK-5943","line1":"1 56016U 23042AG  26092.87758814  .00002587  00000+0  10608-3 0  9995","line2":"2 56016  43.0015 268.7136 0001650 270.9911  89.0751 15.26747124166739","category":"Starlink"},{"name":"FENGYUN 1C DEB","line1":"1 31000U 99025BCS 26091.51460039  .00001321  00000+0  67578-3 0  9997","line2":"2 31000  97.5580 107.7626 0165808 104.9726  47.0692 14.09923441715037","category":"Weather"},{"name":"STARLINK-4051","line1":"1 53273U 22086AH  26092.67473294  .00000630  00000+0  57655-4 0  9999","line2":"2 53273  53.2174  76.4473 0001465  84.4098 275.7062 15.08839903204814","category":"Starlink"},{"name":"STARLINK-32155","line1":"1 60274U 24131V   26092.57749422  .00001035  00000+0  47088-4 0  9998","line2":"2 60274  53.1585 301.6373 0001465  89.9558 270.1611 15.30198819 95277","category":"Starlink"},{"name":"STARLINK-2028","line1":"1 47646U 21012AC  23362.17464665  .00005655  00000+0  39820-3 0  9993","line2":"2 47646  53.0563   9.4853 0001671  91.2719 268.8462 15.06403411159415","category":"Starlink"},{"name":"MOONLIGHTER","line1":"1 57316U 98067VU  24037.73738889  .05261631  12038-4  15583-2 0  9997","line2":"2 57316  51.6203 220.0685 0010753 288.7793  71.2061 16.26213842 33754","category":"Other"},{"name":"BINAR-4","line1":"1 60952U 98067WS  24309.27445772  .07980878  12042-4  24966-2 0  9997","line2":"2 60952  51.6099 332.5936 0004199  58.1619 301.9809 16.25742416 10490","category":"Other"}]}